FENGYUN 3D              
1 43010U 17072A   26167.86546122 -.00000375  00000+0 -15521-3 0  9994
2 43010  99.0122 142.2819 0002573  63.7568 296.3872 14.19737790444942
NOAA 20 (JPSS-1)        
1 43013U 17073A   26167.78987514  .00000056  00000+0  47755-4 0  9992
2 43013  98.7771 107.2560 0000292  94.0257 266.0952 14.19511688444414
GOES 17                 
1 43226U 18022A   26167.66685590 -.00000185  00000+0  00000+0 0  9990
2 43226   0.9364  85.7204 0000413  33.4338 296.3372  1.00269739 30416
SENTINEL-3B             
1 43437U 18039A   26167.69879825  .00000078  00000+0  50330-4 0  9997
2 43437  98.6250 235.2381 0000729  87.9602 272.1662 14.26734561424057
FENGYUN 2H              
1 43491U 18050A   26167.77186332 -.00000134  00000+0  00000+0 0  9991
2 43491   3.0297  79.0759 0001983 138.6061  44.6323  1.00269582 29430
METOP-C                 
1 43689U 18087A   26167.78649755  .00000094  00000+0  62579-4 0  9992
2 43689  98.6645 227.3974 0001752 130.0290 230.1041 14.21512062394779
GEO-KOMPSAT-2A          
1 43823U 18100A   26167.63900156 -.00000346  00000+0  00000+0 0  9994
2 43823   0.0523 115.8368 0001803 330.9204 176.4552  1.00270764 27621
METEOR-M2 2             
1 44387U 19038A   26167.89344216 -.00000256  00000+0 -90889-4 0  9998
2 44387  98.9138 155.1742 0002075  49.1149 311.0209 14.24364800361258
ARKTIKA-M 1             
1 47719U 21016A   26165.99849030 -.00000233  00000+0  00000+0 0  9997
2 47719  63.2382  57.9810 7287766 269.9259  14.6142  2.00623319 38745
FENGYUN 3E              
1 49008U 21062A   26167.84936200  .00000076  00000+0  56587-4 0  9993
2 49008  98.7485 171.2610 0002830  87.8364 272.3137 14.19904344256536
GOES 18                 
1 51850U 22021A   26167.72890358  .00000094  00000+0  00000+0 0  9991
2 51850   0.0413 150.7750 0000299  10.2606 229.3558  1.00270486  6580
NOAA 21 (JPSS-2)        
1 54234U 22150A   26167.82279098  .00000035  00000+0  37331-4 0  9993
2 54234  98.7059 106.6181 0001640 154.9086 205.2170 14.19565421186498
METEOSAT-12 (MTG-I1)    
1 54743U 22170C   26167.68479600 -.00000011  00000+0  00000+0 0  9998
2 54743   0.7378  22.8954 0003149  71.4225  56.7455  1.00272481 12974
TIANMU-1 03             
1 55973U 23039A   26167.85616169  .00012859  00000+0  25401-3 0  9999
2 55973  97.5229 341.8119 0004222  99.6959 260.4768 15.47276403180785
TIANMU-1 04             
1 55974U 23039B   26167.84576602  .00013507  00000+0  26122-3 0  9998
2 55974  97.5165 340.9549 0004862  96.6402 263.5401 15.47874325180798
TIANMU-1 05             
1 55975U 23039C   26167.83690939  .00012845  00000+0  25439-3 0  9992
2 55975  97.5212 341.4068 0003971 115.8449 244.3210 15.47203168180762
TIANMU-1 06             
1 55976U 23039D   26167.84912338  .00013079  00000+0  25388-3 0  9997
2 55976  97.5218 342.0551 0004368 111.4073 248.7644 15.47778203180798
FENGYUN 3G              
1 56232U 23055A   26167.84904797  .00020053  00000+0  32592-3 0  9996
2 56232  49.9935 347.7636 0006985 295.0697  64.9545 15.52614869179952
METEOR-M2 3             
1 57166U 23091A   26167.88768469  .00000006  00000+0  21293-4 0  9994
2 57166  98.6090 222.8721 0004341 156.1892 203.9489 14.24046779154477
TIANMU-1 07             
1 57399U 23101A   26167.83849459  .00005239  00000+0  18404-3 0  9990
2 57399  97.2589 218.5149 0004072 122.1582 238.0054 15.29804811161592
TIANMU-1 08             
1 57400U 23101B   26167.87054758  .00005172  00000+0  18165-3 0  9997
2 57400  97.2577 218.3169 0005581 115.8808 244.3009 15.29809592161599
TIANMU-1 09             
1 57401U 23101C   26167.85396866  .00005354  00000+0  18781-3 0  9991
2 57401  97.2536 217.7166 0004547 127.5282 232.6373 15.29840559161594
TIANMU-1 10             
1 57402U 23101D   26167.88701381  .00005467  00000+0  19185-3 0  9991
2 57402  97.2615 218.7991 0006158 126.8662 233.3144 15.29812418161591
FENGYUN 3F              
1 57490U 23111A   26167.83328794  .00000031  00000+0  35106-4 0  9991
2 57490  98.6836 237.8486 0001593  93.7073 266.4286 14.19939037148814
ARKTIKA-M 2             
1 58584U 23198A   26160.78386103  .00000212  00000+0  00000+0 0  9997
2 58584  63.2205 155.1874 6900401 267.4353  18.7899  2.00606537 18179
TIANMU-1 11             
1 58645U 23205A   26167.85691306  .00004675  00000+0  17903-3 0  9994
2 58645  97.3441 189.4190 0008992  18.2899 341.8662 15.26993298137471
TIANMU-1 12             
1 58646U 23205B   26167.82727024  .00004827  00000+0  18504-3 0  9996
2 58646  97.3430 189.1456 0006786   5.0333 355.0973 15.26957667137458
TIANMU-1 13             
1 58647U 23205C   26167.85941690  .00004840  00000+0  18640-3 0  9993
2 58647  97.3457 189.4497 0005940 342.8374  17.2663 15.26811360137456
TIANMU-1 14             
1 58648U 23205D   26167.84463279  .00004745  00000+0  18251-3 0  9997
2 58648  97.3393 188.6172 0006915 346.8793  13.2265 15.26855932137456
TIANMU-1 19             
1 58660U 23208A   26167.82962627  .00006733  00000+0  22340-3 0  9996
2 58660  97.4511 284.1272 0003859 329.8466  30.2552 15.31570037137272
TIANMU-1 20             
1 58661U 23208B   26167.80241564  .00006805  00000+0  21753-3 0  9992
2 58661  97.4452 284.7348 0006053 335.5876  24.5078 15.32760135137365
