OBJECT_NAME,OBJECT_ID,EPOCH,MEAN_MOTION,ECCENTRICITY,INCLINATION,RA_OF_ASC_NODE,ARG_OF_PERICENTER,MEAN_ANOMALY,EPHEMERIS_TYPE,CLASSIFICATION_TYPE,NORAD_CAT_ID,ELEMENT_SET_NO,REV_AT_EPOCH,BSTAR,MEAN_MOTION_DOT,MEAN_MOTION_DDOT
FENGYUN 3D,2017-072A,2026-06-16T20:46:15.849408,14.19737790,.0002573,99.0122,142.2819,63.7568,296.3872,0,U,43010,999,44494,-.15521E-3,-.375E-5,0
NOAA 20 (JPSS-1),2017-073A,2026-06-16T18:57:25.212096,14.19511688,.0000292,98.7771,107.2560,94.0257,266.0952,0,U,43013,999,44441,.47755E-4,.56E-6,0
GOES 17,2018-022A,2026-06-16T16:00:16.349760,1.00269739,.0000413,0.9364,85.7204,33.4338,296.3372,0,U,43226,999,3041,0,-.185E-5,0
SENTINEL-3B,2018-039A,2026-06-16T16:46:16.168800,14.26734561,.0000729,98.6250,235.2381,87.9602,272.1662,0,U,43437,999,42405,.5033E-4,.78E-6,0
FENGYUN 2H,2018-050A,2026-06-16T18:31:28.990848,1.00269582,.0001983,3.0297,79.0759,138.6061,44.6323,0,U,43491,999,2943,0,-.134E-5,0
METOP-C,2018-087A,2026-06-16T18:52:33.388320,14.21512062,.0001752,98.6645,227.3974,130.0290,230.1041,0,U,43689,999,39477,.62579E-4,.94E-6,0
GEO-KOMPSAT-2A,2018-100A,2026-06-16T15:20:09.734784,1.00270764,.0001803,0.0523,115.8368,330.9204,176.4552,0,U,43823,999,2762,0,-.346E-5,0
METEOR-M2 2,2019-038A,2026-06-16T21:26:33.402624,14.24364800,.0002075,98.9138,155.1742,49.1149,311.0209,0,U,44387,999,36125,-.90889E-4,-.256E-5,0
ARKTIKA-M 1,2021-016A,2026-06-14T23:57:49.561920,2.00623319,.72877661,63.2382,57.9810,269.9259,14.6142,0,U,47719,999,3874,0,-.233E-5,0
FENGYUN 3E,2021-062A,2026-06-16T20:23:04.876800,14.19904344,.000283,98.7485,171.2610,87.8364,272.3137,0,U,49008,999,25653,.56587E-4,.76E-6,0
GOES 18,2022-021A,2026-06-16T17:29:37.269312,1.00270486,.0000299,0.0413,150.7750,10.2606,229.3558,0,U,51850,999,658,0,.94E-6,0
NOAA 21 (JPSS-2),2022-150A,2026-06-16T19:44:49.140672,14.19565421,.000164,98.7059,106.6181,154.9086,205.2170,0,U,54234,999,18649,.37331E-4,.35E-6,0
METEOSAT-12 (MTG-I1),2022-170C,2026-06-16T16:26:06.374400,1.00272481,.0003149,0.7378,22.8954,71.4225,56.7455,0,U,54743,999,1297,0,-.11E-6,0
TIANMU-1 03,2023-039A,2026-06-16T20:32:52.370016,15.47276403,.0004222,97.5229,341.8119,99.6959,260.4768,0,U,55973,999,18078,.25401E-3,.12859E-3,0
TIANMU-1 04,2023-039B,2026-06-16T20:17:54.184128,15.47874325,.0004862,97.5165,340.9549,96.6402,263.5401,0,U,55974,999,18079,.26122E-3,.13507E-3,0
TIANMU-1 05,2023-039C,2026-06-16T20:05:08.971296,15.47203168,.0003971,97.5212,341.4068,115.8449,244.3210,0,U,55975,999,18076,.25439E-3,.12845E-3,0
TIANMU-1 06,2023-039D,2026-06-16T20:22:44.260032,15.47778203,.0004368,97.5218,342.0551,111.4073,248.7644,0,U,55976,999,18079,.25388E-3,.13079E-3,0
FENGYUN 3G,2023-055A,2026-06-16T20:22:37.744608,15.52614869,.0006985,49.9935,347.7636,295.0697,64.9545,0,U,56232,999,17995,.32592E-3,.20053E-3,0
METEOR-M2 3,2023-091A,2026-06-16T21:18:15.957216,14.24046779,.0004341,98.6090,222.8721,156.1892,203.9489,0,U,57166,999,15447,.21293E-4,.6E-7,0
TIANMU-1 07,2023-101A,2026-06-16T20:07:25.932576,15.29804811,.0004072,97.2589,218.5149,122.1582,238.0054,0,U,57399,999,16159,.18404E-3,.5239E-4,0
TIANMU-1 08,2023-101B,2026-06-16T20:53:35.310912,15.29809592,.0005581,97.2577,218.3169,115.8808,244.3009,0,U,57400,999,16159,.18165E-3,.5172E-4,0
TIANMU-1 09,2023-101C,2026-06-16T20:29:42.892224,15.29840559,.0004547,97.2536,217.7166,127.5282,232.6373,0,U,57401,999,16159,.18781E-3,.5354E-4,0
TIANMU-1 10,2023-101D,2026-06-16T21:17:17.993184,15.29812418,.0006158,97.2615,218.7991,126.8662,233.3144,0,U,57402,999,16159,.19185E-3,.5467E-4,0
FENGYUN 3F,2023-111A,2026-06-16T19:59:56.078016,14.19939037,.0001593,98.6836,237.8486,93.7073,266.4286,0,U,57490,999,14881,.35106E-4,.31E-6,0
ARKTIKA-M 2,2023-198A,2026-06-09T18:48:45.592992,2.00606537,.69004015,63.2205,155.1874,267.4353,18.7899,0,U,58584,999,1817,0,.212E-5,0
TIANMU-1 11,2023-205A,2026-06-16T20:33:57.288384,15.26993298,.0008992,97.3441,189.4190,18.2899,341.8662,0,U,58645,999,13747,.17903E-3,.4675E-4,0
TIANMU-1 12,2023-205B,2026-06-16T19:51:16.148736,15.26957667,.0006786,97.3430,189.1456,5.0333,355.0973,0,U,58646,999,13745,.18504E-3,.4827E-4,0
TIANMU-1 13,2023-205C,2026-06-16T20:37:33.620160,15.26811360,.000594,97.3457,189.4497,342.8374,17.2663,0,U,58647,999,13745,.1864E-3,.484E-4,0
TIANMU-1 14,2023-205D,2026-06-16T20:16:16.273056,15.26855932,.0006915,97.3393,188.6172,346.8793,13.2265,0,U,58648,999,13745,.18251E-3,.4745E-4,0
TIANMU-1 19,2023-208A,2026-06-16T19:54:39.709728,15.31570037,.0003859,97.4511,284.1272,329.8466,30.2552,0,U,58660,999,13727,.2234E-3,.6733E-4,0
TIANMU-1 20,2023-208B,2026-06-16T19:15:28.711296,15.32760135,.0006053,97.4452,284.7348,335.5876,24.5078,0,U,58661,999,13736,.21753E-3,.6805E-4,0
